[{"OBJECT_NAME":"TRANSPORTER-12 OBJECT AZ","OBJECT_ID":"2025-009AZ","EPOCH":"2026-03-09T17:02:46.667040","MEAN_MOTION":15.30349724,"ECCENTRICITY":9.87e-5,"INCLINATION":97.3981,"RA_OF_ASC_NODE":151.9913,"ARG_OF_PERICENTER":45.3581,"MEAN_ANOMALY":314.774,"EPHEMERIS_TYPE":0,"CLASSIFICATION_TYPE":"U","NORAD_CAT_ID":62656,"ELEMENT_SET_NO":999,"REV_AT_EPOCH":6379,"BSTAR":0.00054902545,"MEAN_MOTION_DOT":0.00016057,"MEAN_MOTION_DDOT":0},{"OBJECT_NAME":"STARLINK-35491","OBJECT_ID":"2025-236AD","EPOCH":"2026-03-09T12:22:19.493760","MEAN_MOTION":15.30202633,"ECCENTRICITY":0.00011205,"INCLINATION":53.1579,"RA_OF_ASC_NODE":104.9837,"ARG_OF_PERICENTER":75.3909,"MEAN_ANOMALY":284.7216,"EPHEMERIS_TYPE":0,"CLASSIFICATION_TYPE":"U","NORAD_CAT_ID":66113,"ELEMENT_SET_NO":999,"REV_AT_EPOCH":2291,"BSTAR":0.0010876448,"MEAN_MOTION_DOT":0.00031995,"MEAN_MOTION_DDOT":0}]
